<?xml version="1.0"?>
<ArrayOfTLEcontents xmlns:xsd="http://www.w3.org/2001/XMLSchema" xmlns:xsi="http://www.w3.org/2001/XMLSchema-instance">
  <TLEcontents>
    <L2>2 39766  97.9196 170.7557 0001754  91.4461 268.6955 14.79471660 97381</L2>
    <L1>1 39766U 14029A   16072.79135415 -.00000086  00000-0 -47049-5 0  9993</L1>
    <Name>ALOS-2</Name>
  </TLEcontents>
  <TLEcontents>
    <L2>2 39634  98.1815  81.1260 0001273  75.9665 284.1661 14.59198563103427</L2>
    <L1>1 39634U 14016A   16072.91003518 -.00000066  00000-0 -42382-5 0  9998</L1>
    <Name>SENTINEL-1A</Name>
  </TLEcontents>
  <TLEcontents>
    <L2>2 25544  51.6436 144.4524 0001845 329.9530 167.3838 15.54205650991053</L2>
    <L1>1 25544U 98067A   16079.67549635  .00009878  00000-0  15582-3 0  9994</L1>
    <Name>ISS</Name>
  </TLEcontents>
  <TLEcontents>
    <L2>2 20580  28.4695 132.6430 0002597 325.8151  86.8763 15.08249719221513</L2>
    <L1>1 20580U 90037B   16079.24219932  .00001428  00000-0  78650-4 0  9994</L1>
    <Name>HST  </Name>
  </TLEcontents>
  <TLEcontents>
    <L2>2 40267   0.0119 178.4988 0001115 205.4218 336.0845  1.00271664  5345</L2>
    <L1>1 40267U 14060A   16079.11760133 -.00000307  00000-0  00000+0 0  9995</L1>
    <Name>HIMAWARI</Name>
  </TLEcontents>
  <TLEcontents>
    <L2>2 37158  40.6753 165.9600 0753216 270.1327 199.3730  1.00255672 20220</L2>
    <L1>1 37158U 10045A   16078.89516619 -.00000254  00000-0  00000-0 0  9993</L1>
    <Name>QZS-1</Name>
  </TLEcontents>
</ArrayOfTLEcontents>